[{"OBJECT_NAME":"JILIN-1 07","OBJECT_ID":"2018-008E","EPOCH":"2026-03-09T22:24:26.445888","MEAN_MOTION":15.32987507,"ECCENTRICITY":0.00101791,"INCLINATION":97.1876,"RA_OF_ASC_NODE":91.5817,"ARG_OF_PERICENTER":62.7832,"MEAN_ANOMALY":297.4447,"EPHEMERIS_TYPE":0,"CLASSIFICATION_TYPE":"U","NORAD_CAT_ID":43159,"ELEMENT_SET_NO":999,"REV_AT_EPOCH":44978,"BSTAR":0.00036439521,"MEAN_MOTION_DOT":0.00011559,"MEAN_MOTION_DDOT":0},{"OBJECT_NAME":"STARLINK-1661","OBJECT_ID":"2020-062AG","EPOCH":"2026-03-09T03:24:40.260960","MEAN_MOTION":15.30239796,"ECCENTRICITY":0.00010357,"INCLINATION":53.1612,"RA_OF_ASC_NODE":13.5256,"ARG_OF_PERICENTER":95.5841,"MEAN_ANOMALY":264.5278,"EPHEMERIS_TYPE":0,"CLASSIFICATION_TYPE":"U","NORAD_CAT_ID":46355,"ELEMENT_SET_NO":999,"REV_AT_EPOCH":30431,"BSTAR":0.0005707499,"MEAN_MOTION_DOT":0.00016603,"MEAN_MOTION_DDOT":0}]
